{
    "type": "FeatureCollection",
    "name": "attendance-geodata.geojson",
    "crs": { "type": "name", "properties": { "name": "urn:ogc:def:crs:OGC:1.3:CRS84" } },
    "features": [
    { "type": "Feature", "properties": { "See": "Ábela", "Pleiades_URL": "https://pleiades.stoa.org/places/236361" , "Modern_City": "Ávila", "Province": "Carthaginensis", "Latitude": 40.654347, "Longitude": -4.696222, "Earliest_Attested_Bishop": 380, "Elvira_306": "-", "Elvira_306 Attendance": false, "Zaragoza_380": "-", "Toledo_400": "-", "Tarragona_516": "-", "Tarragona_516 Attendance": false, "Giron_517": "-", "Giron_517 Attendance": false, "Toledo_527": "-", "Toledo_527 Attendance": false, "Barcelona_540": "-", "Barcelona_540 Attendance": false, "Lérida_546": "-", "Lérida_546 Attendance": false, "Valencia_546": "-", "Valencia_546 Attendance": false, "Braga_561": "-", "Braga_561 Attendance": false, "Braga_572": "-", "Braga_572 Attendance": false, "Toledo_589": "-", "Toledo_589 Attendance": false, "Notes": null, "Toledo_400 Attendance": false, "Zaragoza_380 Attendance": false }, "geometry": { "type": "Point", "coordinates": [ -4.696222, 40.654347 ] } },
    { "type": "Feature", "properties": { "See": "Acci", "Pleiades_URL": "https://pleiades.stoa.org/places/265765" , "Modern_City": "Guadix", "Province": "Carthaginensis", "Latitude": 37.299552, "Longitude": -3.137125, "Earliest_Attested_Bishop": 47, "Elvira_306": "Felix", "Elvira_306 Attendance": true, "Zaragoza_380": "-", "Toledo_400": "-", "Tarragona_516": "-", "Tarragona_516 Attendance": false, "Giron_517": "-", "Giron_517 Attendance": false, "Toledo_527": "-", "Toledo_527 Attendance": false, "Barcelona_540": "-", "Barcelona_540 Attendance": false, "Lérida_546": "-", "Lérida_546 Attendance": false, "Valencia_546": "-", "Valencia_546 Attendance": false, "Braga_561": "-", "Braga_561 Attendance": false, "Braga_572": "-", "Braga_572 Attendance": false, "Toledo_589": "Lilliolus", "Toledo_589 Attendance": true, "Notes": null, "Toledo_400 Attendance": false, "Zaragoza_380 Attendance": false }, "geometry": { "type": "Point", "coordinates": [ -3.137125, 37.299552 ] } },
    { "type": "Feature", "properties": { "See": "Agata", "Pleiades_URL": "https://pleiades.stoa.org/places/147985" , "Modern_City": "Agde", "Province": "Gallia", "Latitude": 43.31, "Longitude": 3.475278, "Earliest_Attested_Bishop": 506, "Elvira_306": "-", "Elvira_306 Attendance": false, "Zaragoza_380": "-", "Toledo_400": "-", "Tarragona_516": "-", "Tarragona_516 Attendance": false, "Giron_517": "-", "Giron_517 Attendance": false, "Toledo_527": "-", "Toledo_527 Attendance": false, "Barcelona_540": "-", "Barcelona_540 Attendance": false, "Lérida_546": "-", "Lérida_546 Attendance": false, "Valencia_546": "-", "Valencia_546 Attendance": false, "Braga_561": "-", "Braga_561 Attendance": false, "Braga_572": "-", "Braga_572 Attendance": false, "Toledo_589": "Tigridius", "Toledo_589 Attendance": true, "Notes": "Duchesne vol. 1, 317-318", "Toledo_400 Attendance": false, "Zaragoza_380 Attendance": false }, "geometry": { "type": "Point", "coordinates": [ 3.475278, 43.31 ] } },
    { "type": "Feature", "properties": { "See": "Ampurias", "Pleiades_URL": "https://pleiades.stoa.org/places/246382" ,"Modern_City": "Empuries", "Province": "Tarraconensis", "Latitude": 42.139619, "Longitude": 3.117987, "Earliest_Attested_Bishop": 516, "Elvira_306": "-", "Elvira_306 Attendance": false, "Zaragoza_380": "-", "Toledo_400": "-", "Tarragona_516": "Paulus", "Tarragona_516 Attendance": true, "Giron_517": "Paulus", "Giron_517 Attendance": true, "Toledo_527": "-", "Toledo_527 Attendance": false, "Barcelona_540": "Carontius", "Barcelona_540 Attendance": true, "Lérida_546": "Carontius", "Lérida_546 Attendance": true, "Valencia_546": "-", "Valencia_546 Attendance": false, "Braga_561": "-", "Braga_561 Attendance": false, "Braga_572": "-", "Braga_572 Attendance": false, "Toledo_589": "Archpresbyter (Gaianus)", "Toledo_589 Attendance": true, "Notes": null, "Toledo_400 Attendance": false, "Zaragoza_380 Attendance": false }, "geometry": { "type": "Point", "coordinates": [ 3.117987, 42.139619 ] } },
    { "type": "Feature", "properties": { "See": "Aquae Flaviae", "Pleiades_URL": "https://pleiades.stoa.org/places/236334" , "Modern_City": "Chaves", "Province": "Lusitania", "Latitude": 41.739, "Longitude": -7.469, "Earliest_Attested_Bishop": 430, "Elvira_306": "-", "Elvira_306 Attendance": false, "Zaragoza_380": "-", "Toledo_400": "-", "Tarragona_516": "-", "Tarragona_516 Attendance": false, "Giron_517": "-", "Giron_517 Attendance": false, "Toledo_527": "-", "Toledo_527 Attendance": false, "Barcelona_540": "-", "Barcelona_540 Attendance": false, "Lérida_546": "-", "Lérida_546 Attendance": false, "Valencia_546": "-", "Valencia_546 Attendance": false, "Braga_561": "-", "Braga_561 Attendance": false, "Braga_572": "-", "Braga_572 Attendance": false, "Toledo_589": "-", "Toledo_589 Attendance": false, "Notes": null, "Toledo_400 Attendance": false, "Zaragoza_380 Attendance": false }, "geometry": { "type": "Point", "coordinates": [ -7.469, 41.739 ] } },
    { "type": "Feature", "properties": { "See": "Arcavica Celtiberiae", "Pleiades_URL": "https://pleiades.stoa.org/places/246384" , "Modern_City": "Ercavica", "Province": "Carthaginensis", "Latitude": 40.431768, "Longitude": -2.669288, "Earliest_Attested_Bishop": 589, "Elvira_306": "-", "Elvira_306 Attendance": false, "Zaragoza_380": "-", "Toledo_400": "-", "Tarragona_516": "-", "Tarragona_516 Attendance": false, "Giron_517": "-", "Giron_517 Attendance": false, "Toledo_527": "-", "Toledo_527 Attendance": false, "Barcelona_540": "-", "Barcelona_540 Attendance": false, "Lérida_546": "-", "Lérida_546 Attendance": false, "Valencia_546": "-", "Valencia_546 Attendance": false, "Braga_561": "-", "Braga_561 Attendance": false, "Braga_572": "-", "Braga_572 Attendance": false, "Toledo_589": "Petrus", "Toledo_589 Attendance": true, "Notes": null, "Toledo_400 Attendance": false, "Zaragoza_380 Attendance": false }, "geometry": { "type": "Point", "coordinates": [ -2.669288, 40.431768 ] } },
    { "type": "Feature", "properties": { "See": "Astigi", "Pleiades_URL": "https://pleiades.stoa.org/places/255996" , "Modern_City": "Écija", "Province": "Baetica", "Latitude": 37.541111, "Longitude": -5.079167, "Earliest_Attested_Bishop": 585, "Elvira_306": "-", "Elvira_306 Attendance": false, "Zaragoza_380": "-", "Toledo_400": "-", "Tarragona_516": "-", "Tarragona_516 Attendance": false, "Giron_517": "-", "Giron_517 Attendance": false, "Toledo_527": "-", "Toledo_527 Attendance": false, "Barcelona_540": "-", "Barcelona_540 Attendance": false, "Lérida_546": "-", "Lérida_546 Attendance": false, "Valencia_546": "-", "Valencia_546 Attendance": false, "Braga_561": "-", "Braga_561 Attendance": false, "Braga_572": "-", "Braga_572 Attendance": false, "Toledo_589": "Deacon (Servandus)", "Toledo_589 Attendance": true, "Notes": null, "Toledo_400 Attendance": false, "Zaragoza_380 Attendance": false }, "geometry": { "type": "Point", "coordinates": [ -5.079167, 37.541111 ] } },
    { "type": "Feature", "properties": { "See": "Asturica Augusta", "Pleiades_URL": "https://pleiades.stoa.org/places/236352" , "Modern_City": "Astorga", "Province": "Gallaecia", "Latitude": 42.4589, "Longitude": -6.06333, "Earliest_Attested_Bishop": 250, "Elvira_306": "-", "Elvira_306 Attendance": false, "Zaragoza_380": "Simposius", "Toledo_400": "condemned (Sinfosius)", "Tarragona_516": "-", "Tarragona_516 Attendance": false, "Giron_517": "-", "Giron_517 Attendance": false, "Toledo_527": "-", "Toledo_527 Attendance": false, "Barcelona_540": "-", "Barcelona_540 Attendance": false, "Lérida_546": "-", "Lérida_546 Attendance": false, "Valencia_546": "-", "Valencia_546 Attendance": false, "Braga_561": "-", "Braga_561 Attendance": false, "Braga_572": "Polimus", "Braga_572 Attendance": true, "Toledo_589": "Talasius", "Toledo_589 Attendance": true, "Notes": null, "Toledo_400 Attendance": false, "Zaragoza_380 Attendance": true }, "geometry": { "type": "Point", "coordinates": [ -6.06333, 42.4589 ] } },
    { "type": "Feature", "properties": { "See": "Auca", "Pleiades_URL": "https://pleiades.stoa.org/places/246206" , "Modern_City": "Oca", "Province": "Tarraconensis", "Latitude": 42.386389, "Longitude": -3.309167, "Earliest_Attested_Bishop": 589, "Elvira_306": "-", "Elvira_306 Attendance": false, "Zaragoza_380": "-", "Toledo_400": "-", "Tarragona_516": "-", "Tarragona_516 Attendance": false, "Giron_517": "-", "Giron_517 Attendance": false, "Toledo_527": "-", "Toledo_527 Attendance": false, "Barcelona_540": "-", "Barcelona_540 Attendance": false, "Lérida_546": "-", "Lérida_546 Attendance": false, "Valencia_546": "-", "Valencia_546 Attendance": false, "Braga_561": "-", "Braga_561 Attendance": false, "Braga_572": "-", "Braga_572 Attendance": false, "Toledo_589": "Asterius", "Toledo_589 Attendance": true, "Notes": null, "Toledo_400 Attendance": false, "Zaragoza_380 Attendance": false }, "geometry": { "type": "Point", "coordinates": [ -3.309167, 42.386389 ] } },
    { "type": "Feature", "properties": { "See": "Augusta Emerita", "Pleiades_URL": "https://pleiades.stoa.org/places/256155" , "Modern_City": "Mérida", "Province": "Lusitania", "Latitude": 38.917275, "Longitude": -6.344845, "Earliest_Attested_Bishop": 255, "Elvira_306": "Liberius (M)", "Elvira_306 Attendance": true, "Zaragoza_380": "Idacius (M)", "Toledo_400": "Patruinus (M)", "Tarragona_516": "-", "Tarragona_516 Attendance": false, "Giron_517": "-", "Giron_517 Attendance": false, "Toledo_527": "Paulus? (dubious, M)", "Toledo_527 Attendance": true, "Barcelona_540": "-", "Barcelona_540 Attendance": false, "Lérida_546": "-", "Lérida_546 Attendance": false, "Valencia_546": "-", "Valencia_546 Attendance": false, "Braga_561": "-", "Braga_561 Attendance": false, "Braga_572": "-", "Braga_572 Attendance": false, "Toledo_589": "Masona (M)", "Toledo_589 Attendance": true, "Notes": null, "Toledo_400 Attendance": true, "Zaragoza_380 Attendance": true }, "geometry": { "type": "Point", "coordinates": [ -6.344845, 38.917275 ] } },
    { "type": "Feature", "properties": { "See": "Auriensis", "Pleiades_URL": "https://pleiades.stoa.org/places/236357" , "Modern_City": "Orense", "Province": "Gallaecia", "Latitude": 42.336389, "Longitude": -7.863333, "Earliest_Attested_Bishop": 572, "Elvira_306": "-", "Elvira_306 Attendance": false, "Zaragoza_380": "-", "Toledo_400": "-", "Tarragona_516": "-", "Tarragona_516 Attendance": false, "Giron_517": "-", "Giron_517 Attendance": false, "Toledo_527": "-", "Toledo_527 Attendance": false, "Barcelona_540": "-", "Barcelona_540 Attendance": false, "Lérida_546": "-", "Lérida_546 Attendance": false, "Valencia_546": "-", "Valencia_546 Attendance": false, "Braga_561": "-", "Braga_561 Attendance": false, "Braga_572": "Witimer", "Braga_572 Attendance": true, "Toledo_589": "Archpresbyter (Hildimirus)", "Toledo_589 Attendance": true, "Notes": null, "Toledo_400 Attendance": false, "Zaragoza_380 Attendance": false }, "geometry": { "type": "Point", "coordinates": [ -7.863333, 42.336389 ] } },
    { "type": "Feature", "properties": { "See": "Ausona", "Pleiades_URL": "https://pleiades.stoa.org/places/246212" , "Modern_City": "Vic", "Province": "Tarraconensis", "Latitude": 41.930379, "Longitude": 2.254575, "Earliest_Attested_Bishop": 516, "Elvira_306": "-", "Elvira_306 Attendance": false, "Zaragoza_380": "-", "Toledo_400": "-", "Tarragona_516": "Cinidius", "Tarragona_516 Attendance": true, "Giron_517": "Cinidius", "Giron_517 Attendance": true, "Toledo_527": "-", "Toledo_527 Attendance": false, "Barcelona_540": "-", "Barcelona_540 Attendance": false, "Lérida_546": "-", "Lérida_546 Attendance": false, "Valencia_546": "-", "Valencia_546 Attendance": false, "Braga_561": "-", "Braga_561 Attendance": false, "Braga_572": "-", "Braga_572 Attendance": false, "Toledo_589": "Aquilinus", "Toledo_589 Attendance": true, "Notes": null, "Toledo_400 Attendance": false, "Zaragoza_380 Attendance": false }, "geometry": { "type": "Point", "coordinates": [ 2.254575, 41.930379 ] } },
    { "type": "Feature", "properties": { "See": "Barcino", "Pleiades_URL": "https://pleiades.stoa.org/places/246343" , "Modern_City": "Barcelona", "Province": "Tarraconensis", "Latitude": 41.382223, "Longitude": 2.177258, "Earliest_Attested_Bishop": 343, "Elvira_306": "-", "Elvira_306 Attendance": false, "Zaragoza_380": "-", "Toledo_400": "Lampius", "Tarragona_516": "Agricius", "Tarragona_516 Attendance": true, "Giron_517": "Agricius", "Giron_517 Attendance": true, "Toledo_527": "-", "Toledo_527 Attendance": false, "Barcelona_540": "Nibridius", "Barcelona_540 Attendance": true, "Lérida_546": "Paternus", "Lérida_546 Attendance": true, "Valencia_546": "-", "Valencia_546 Attendance": false, "Braga_561": "-", "Braga_561 Attendance": false, "Braga_572": "-", "Braga_572 Attendance": false, "Toledo_589": "Ugnas", "Toledo_589 Attendance": true, "Notes": null, "Toledo_400 Attendance": true, "Zaragoza_380 Attendance": false }, "geometry": { "type": "Point", "coordinates": [ 2.177258, 41.382223 ] } },
    { "type": "Feature", "properties": { "See": "Basti", "Pleiades_URL": "https://pleiades.stoa.org/places/265823" ,  "Modern_City": "Baza", "Province": "Carthaginensis", "Latitude": 37.512257, "Longitude": -2.732414, "Earliest_Attested_Bishop": 306, "Elvira_306": "Euticianus", "Elvira_306 Attendance": true, "Zaragoza_380": "-", "Toledo_400": "-", "Tarragona_516": "-", "Tarragona_516 Attendance": false, "Giron_517": "-", "Giron_517 Attendance": false, "Toledo_527": "-", "Toledo_527 Attendance": false, "Barcelona_540": "-", "Barcelona_540 Attendance": false, "Lérida_546": "-", "Lérida_546 Attendance": false, "Valencia_546": "-", "Valencia_546 Attendance": false, "Braga_561": "-", "Braga_561 Attendance": false, "Braga_572": "-", "Braga_572 Attendance": false, "Toledo_589": "Theodorus", "Toledo_589 Attendance": true, "Notes": null, "Toledo_400 Attendance": false, "Zaragoza_380 Attendance": false }, "geometry": { "type": "Point", "coordinates": [ -2.732414, 37.512257 ] } },
    { "type": "Feature", "properties": { "See": "Begastri", "Pleiades_URL": "https://pleiades.stoa.org/places/265826" , "Modern_City": "Cehegín", "Province": "Carthaginensis", "Latitude": 38.087176, "Longitude": -1.771577, "Earliest_Attested_Bishop": 610, "Elvira_306": "-", "Elvira_306 Attendance": false, "Zaragoza_380": "-", "Toledo_400": "-", "Tarragona_516": "-", "Tarragona_516 Attendance": false, "Giron_517": "-", "Giron_517 Attendance": false, "Toledo_527": "-", "Toledo_527 Attendance": false, "Barcelona_540": "-", "Barcelona_540 Attendance": false, "Lérida_546": "-", "Lérida_546 Attendance": false, "Valencia_546": "-", "Valencia_546 Attendance": false, "Braga_561": "-", "Braga_561 Attendance": false, "Braga_572": "-", "Braga_572 Attendance": false, "Toledo_589": "-", "Toledo_589 Attendance": false, "Notes": null, "Toledo_400 Attendance": false, "Zaragoza_380 Attendance": false }, "geometry": { "type": "Point", "coordinates": [ -1.771577, 38.087176 ] } },
    { "type": "Feature", "properties": { "See": "Beterra", "Pleiades_URL": "https://pleiades.stoa.org/places/148056" , "Modern_City": "Beziers", "Province": "Gallia", "Latitude": 43.343333, "Longitude": 3.216111, "Earliest_Attested_Bishop": 418, "Elvira_306": "-", "Elvira_306 Attendance": false, "Zaragoza_380": "-", "Toledo_400": "-", "Tarragona_516": "-", "Tarragona_516 Attendance": false, "Giron_517": "-", "Giron_517 Attendance": false, "Toledo_527": "-", "Toledo_527 Attendance": false, "Barcelona_540": "-", "Barcelona_540 Attendance": false, "Lérida_546": "-", "Lérida_546 Attendance": false, "Valencia_546": "-", "Valencia_546 Attendance": false, "Braga_561": "-", "Braga_561 Attendance": false, "Braga_572": "-", "Braga_572 Attendance": false, "Toledo_589": "Sedatus", "Toledo_589 Attendance": true, "Notes": "Duchesne vol. 1, 309", "Toledo_400 Attendance": false, "Zaragoza_380 Attendance": false }, "geometry": { "type": "Point", "coordinates": [ 3.216111, 43.343333 ] } },
    { "type": "Feature", "properties": { "See": "Bisensis", "Pleiades_URL": "-" , "Modern_City": "Viseo", "Province": "Lusitania", "Latitude": 40.666667, "Longitude": -7.916667, "Earliest_Attested_Bishop": 572, "Elvira_306": "-", "Elvira_306 Attendance": false, "Zaragoza_380": "-", "Toledo_400": "-", "Tarragona_516": "-", "Tarragona_516 Attendance": false, "Giron_517": "-", "Giron_517 Attendance": false, "Toledo_527": "-", "Toledo_527 Attendance": false, "Barcelona_540": "-", "Barcelona_540 Attendance": false, "Lérida_546": "-", "Lérida_546 Attendance": false, "Valencia_546": "-", "Valencia_546 Attendance": false, "Braga_561": "-", "Braga_561 Attendance": false, "Braga_572": "Remisol", "Braga_572 Attendance": true, "Toledo_589": "Iohannes, Sunnila", "Toledo_589 Attendance": true, "Notes": null, "Toledo_400 Attendance": false, "Zaragoza_380 Attendance": false }, "geometry": { "type": "Point", "coordinates": [ -7.916667, 40.666667 ] } },
    { "type": "Feature", "properties": { "See": "Bracara Augusta", "Pleiades_URL": "https://pleiades.stoa.org/places/236377" , "Modern_City": "Braga", "Province": "Gallaecia", "Latitude": 41.548757, "Longitude": -8.427669, "Earliest_Attested_Bishop": 390, "Elvira_306": "-", "Elvira_306 Attendance": false, "Zaragoza_380": "-", "Toledo_400": "condemned (Paternus, M)", "Tarragona_516": "-", "Tarragona_516 Attendance": false, "Giron_517": "-", "Giron_517 Attendance": false, "Toledo_527": "-", "Toledo_527 Attendance": false, "Barcelona_540": "-", "Barcelona_540 Attendance": false, "Lérida_546": "-", "Lérida_546 Attendance": false, "Valencia_546": "-", "Valencia_546 Attendance": false, "Braga_561": "Lucretius (M)", "Braga_561 Attendance": true, "Braga_572": "Martin (M, shared w/ Dume)", "Braga_572 Attendance": true, "Toledo_589": "Pantardus (M)", "Toledo_589 Attendance": true, "Notes": null, "Toledo_400 Attendance": false, "Zaragoza_380 Attendance": false }, "geometry": { "type": "Point", "coordinates": [ -8.427669, 41.548757 ] } },
    { "type": "Feature", "properties": { "See": "Caesaraugusta", "Pleiades_URL": "https://pleiades.stoa.org/places/246344" , "Modern_City": "Zaragoza", "Province": "Tarraconensis", "Latitude": 41.653547, "Longitude": -0.879897, "Earliest_Attested_Bishop": 256, "Elvira_306": "Valerius", "Elvira_306 Attendance": true, "Zaragoza_380": "Valerius", "Toledo_400": "-", "Tarragona_516": "Vincentius", "Tarragona_516 Attendance": true, "Giron_517": "-", "Giron_517 Attendance": false, "Toledo_527": "-", "Toledo_527 Attendance": false, "Barcelona_540": "Iohannes", "Barcelona_540 Attendance": true, "Lérida_546": "Iohannes", "Lérida_546 Attendance": true, "Valencia_546": "-", "Valencia_546 Attendance": false, "Braga_561": "-", "Braga_561 Attendance": false, "Braga_572": "-", "Braga_572 Attendance": false, "Toledo_589": "Simplicius", "Toledo_589 Attendance": true, "Notes": null, "Toledo_400 Attendance": false, "Zaragoza_380 Attendance": true }, "geometry": { "type": "Point", "coordinates": [ -0.879897, 41.653547 ] } },
    { "type": "Feature", "properties": { "See": "Calagurris (Fibularia/Nasica Iulia)", "Pleiades_URL": "https://pleiades.stoa.org/places/246279" , "Modern_City": "Calahorra?", "Province": "Tarraconensis", "Latitude": 42.303333, "Longitude": -1.964722, "Earliest_Attested_Bishop": 306, "Elvira_306": "Ianuarius (Fibularia)", "Elvira_306 Attendance": true, "Zaragoza_380": "-", "Toledo_400": "-", "Tarragona_516": "-", "Tarragona_516 Attendance": false, "Giron_517": "-", "Giron_517 Attendance": false, "Toledo_527": "-", "Toledo_527 Attendance": false, "Barcelona_540": "-", "Barcelona_540 Attendance": false, "Lérida_546": "-", "Lérida_546 Attendance": false, "Valencia_546": "-", "Valencia_546 Attendance": false, "Braga_561": "-", "Braga_561 Attendance": false, "Braga_572": "-", "Braga_572 Attendance": false, "Toledo_589": "Mummius (Nasica Iulia)", "Toledo_589 Attendance": true, "Notes": null, "Toledo_400 Attendance": false, "Zaragoza_380 Attendance": false }, "geometry": { "type": "Point", "coordinates": [ -1.964722, 42.303333 ] } },
    { "type": "Feature", "properties": { "See": "Caliabria", "Pleiades_URL": "https://pleiades.stoa.org/places/236397" , "Modern_City": "Ciudad Rodrigo", "Province": "Lusitania", "Latitude": 40.59757, "Longitude": -6.533918, "Earliest_Attested_Bishop": null, "Elvira_306": "-", "Elvira_306 Attendance": false, "Zaragoza_380": "-", "Toledo_400": "-", "Tarragona_516": "-", "Tarragona_516 Attendance": false, "Giron_517": "-", "Giron_517 Attendance": false, "Toledo_527": "-", "Toledo_527 Attendance": false, "Barcelona_540": "-", "Barcelona_540 Attendance": false, "Lérida_546": "-", "Lérida_546 Attendance": false, "Valencia_546": "-", "Valencia_546 Attendance": false, "Braga_561": "-", "Braga_561 Attendance": false, "Braga_572": "-", "Braga_572 Attendance": false, "Toledo_589": "-", "Toledo_589 Attendance": false, "Notes": null, "Toledo_400 Attendance": false, "Zaragoza_380 Attendance": false }, "geometry": { "type": "Point", "coordinates": [ -6.533918, 40.59757 ] } },
    { "type": "Feature", "properties": { "See": "Carcasona", "Pleiades_URL": "https://pleiades.stoa.org/places/246294" , "Modern_City": "Carcassonne", "Province": "Gallia", "Latitude": 43.215833, "Longitude": 2.351389, "Earliest_Attested_Bishop": 589, "Elvira_306": "-", "Elvira_306 Attendance": false, "Zaragoza_380": "-", "Toledo_400": "-", "Tarragona_516": "-", "Tarragona_516 Attendance": false, "Giron_517": "-", "Giron_517 Attendance": false, "Toledo_527": "-", "Toledo_527 Attendance": false, "Barcelona_540": "-", "Barcelona_540 Attendance": false, "Lérida_546": "-", "Lérida_546 Attendance": false, "Valencia_546": "-", "Valencia_546 Attendance": false, "Braga_561": "-", "Braga_561 Attendance": false, "Braga_572": "-", "Braga_572 Attendance": false, "Toledo_589": "Sergius", "Toledo_589 Attendance": true, "Notes": "Duchesne vol. 1, 318-319", "Toledo_400 Attendance": false, "Zaragoza_380 Attendance": false }, "geometry": { "type": "Point", "coordinates": [ 2.351389, 43.215833 ] } },
    { "type": "Feature", "properties": { "See": "Cartago Spartaria", "Pleiades_URL": "https://pleiades.stoa.org/places/265849" , "Modern_City": "Cartagena", "Province": "Carthaginensis", "Latitude": 37.602603, "Longitude": -0.985162, "Earliest_Attested_Bishop": 439, "Elvira_306": "-", "Elvira_306 Attendance": false, "Zaragoza_380": "-", "Toledo_400": "-", "Tarragona_516": "Ector (M?)", "Tarragona_516 Attendance": true, "Giron_517": "-", "Giron_517 Attendance": false, "Toledo_527": "-", "Toledo_527 Attendance": false, "Barcelona_540": "-", "Barcelona_540 Attendance": false, "Lérida_546": "-", "Lérida_546 Attendance": false, "Valencia_546": "Celcinus", "Valencia_546 Attendance": true, "Braga_561": "-", "Braga_561 Attendance": false, "Braga_572": "-", "Braga_572 Attendance": false, "Toledo_589": "-", "Toledo_589 Attendance": false, "Notes": null, "Toledo_400 Attendance": false, "Zaragoza_380 Attendance": false }, "geometry": { "type": "Point", "coordinates": [ -0.985162, 37.602603 ] } },
    { "type": "Feature", "properties": { "See": "Castolo", "Pleiades_URL": "https://pleiades.stoa.org/places/265855" , "Modern_City": "Castulo", "Province": "Carthaginensis", "Latitude": 38.035905, "Longitude": -3.623552, "Earliest_Attested_Bishop": 306, "Elvira_306": "Secundinus", "Elvira_306 Attendance": true, "Zaragoza_380": "-", "Toledo_400": "-", "Tarragona_516": "-", "Tarragona_516 Attendance": false, "Giron_517": "-", "Giron_517 Attendance": false, "Toledo_527": "-", "Toledo_527 Attendance": false, "Barcelona_540": "-", "Barcelona_540 Attendance": false, "Lérida_546": "-", "Lérida_546 Attendance": false, "Valencia_546": "-", "Valencia_546 Attendance": false, "Braga_561": "-", "Braga_561 Attendance": false, "Braga_572": "-", "Braga_572 Attendance": false, "Toledo_589": "Theodorus", "Toledo_589 Attendance": true, "Notes": null, "Toledo_400 Attendance": false, "Zaragoza_380 Attendance": false }, "geometry": { "type": "Point", "coordinates": [ -3.623552, 38.035905 ] } },
    { "type": "Feature", "properties": { "See": "Cauria", "Pleiades_URL": "https://pleiades.stoa.org/places/256087" , "Modern_City": "Coria", "Province": "Lusitania", "Latitude": 39.9819, "Longitude": -6.53694, "Earliest_Attested_Bishop": 589, "Elvira_306": "-", "Elvira_306 Attendance": false, "Zaragoza_380": "-", "Toledo_400": "-", "Tarragona_516": "-", "Tarragona_516 Attendance": false, "Giron_517": "-", "Giron_517 Attendance": false, "Toledo_527": "-", "Toledo_527 Attendance": false, "Barcelona_540": "-", "Barcelona_540 Attendance": false, "Lérida_546": "-", "Lérida_546 Attendance": false, "Valencia_546": "-", "Valencia_546 Attendance": false, "Braga_561": "-", "Braga_561 Attendance": false, "Braga_572": "-", "Braga_572 Attendance": false, "Toledo_589": "Iaquintus", "Toledo_589 Attendance": true, "Notes": null, "Toledo_400 Attendance": false, "Zaragoza_380 Attendance": false }, "geometry": { "type": "Point", "coordinates": [ -6.53694, 39.9819 ] } },
    { "type": "Feature", "properties": { "See": "Columbriga / Aeminium", "Pleiades_URL": "https://pleiades.stoa.org/places/236321" , "Modern_City": "Coimbra", "Province": "Gallaecia", "Latitude": 40.208639, "Longitude": -8.425698, "Earliest_Attested_Bishop": 561, "Elvira_306": "-", "Elvira_306 Attendance": false, "Zaragoza_380": "-", "Toledo_400": "-", "Tarragona_516": "-", "Tarragona_516 Attendance": false, "Giron_517": "-", "Giron_517 Attendance": false, "Toledo_527": "-", "Toledo_527 Attendance": false, "Barcelona_540": "-", "Barcelona_540 Attendance": false, "Lérida_546": "-", "Lérida_546 Attendance": false, "Valencia_546": "-", "Valencia_546 Attendance": false, "Braga_561": "Lucetius", "Braga_561 Attendance": true, "Braga_572": "Lucetius", "Braga_572 Attendance": true, "Toledo_589": "Possidonius", "Toledo_589 Attendance": true, "Notes": null, "Toledo_400 Attendance": false, "Zaragoza_380 Attendance": false }, "geometry": { "type": "Point", "coordinates": [ -8.425698, 40.208639 ] } },
    { "type": "Feature", "properties": { "See": "Complutum", "Pleiades_URL": "https://pleiades.stoa.org/places/246352" , "Modern_City": "Alcalá de Henares", "Province": "Carthaginensis", "Latitude": 40.473611, "Longitude": -3.384167, "Earliest_Attested_Bishop": 412, "Elvira_306": "-", "Elvira_306 Attendance": false, "Zaragoza_380": "-", "Toledo_400": "-", "Tarragona_516": "-", "Tarragona_516 Attendance": false, "Giron_517": "-", "Giron_517 Attendance": false, "Toledo_527": "-", "Toledo_527 Attendance": false, "Barcelona_540": "-", "Barcelona_540 Attendance": false, "Lérida_546": "-", "Lérida_546 Attendance": false, "Valencia_546": "-", "Valencia_546 Attendance": false, "Braga_561": "-", "Braga_561 Attendance": false, "Braga_572": "-", "Braga_572 Attendance": false, "Toledo_589": "-", "Toledo_589 Attendance": false, "Notes": null, "Toledo_400 Attendance": false, "Zaragoza_380 Attendance": false }, "geometry": { "type": "Point", "coordinates": [ -3.384167, 40.473611 ] } },
    { "type": "Feature", "properties": { "See": "Cordoba", "Pleiades_URL": "https://pleiades.stoa.org/places/256128" , "Modern_City": "Córdoba", "Province": "Baetica", "Latitude": 37.884738, "Longitude": -4.776357, "Earliest_Attested_Bishop": 290, "Elvira_306": "Osius", "Elvira_306 Attendance": true, "Zaragoza_380": "-", "Toledo_400": "-", "Tarragona_516": "-", "Tarragona_516 Attendance": false, "Giron_517": "-", "Giron_517 Attendance": false, "Toledo_527": "-", "Toledo_527 Attendance": false, "Barcelona_540": "-", "Barcelona_540 Attendance": false, "Lérida_546": "-", "Lérida_546 Attendance": false, "Valencia_546": "-", "Valencia_546 Attendance": false, "Braga_561": "-", "Braga_561 Attendance": false, "Braga_572": "-", "Braga_572 Attendance": false, "Toledo_589": "Agapius", "Toledo_589 Attendance": true, "Notes": null, "Toledo_400 Attendance": false, "Zaragoza_380 Attendance": false }, "geometry": { "type": "Point", "coordinates": [ -4.776357, 37.884738 ] } },
    { "type": "Feature", "properties": { "See": "Dertosa", "Pleiades_URL": "https://pleiades.stoa.org/places/246369" , "Modern_City": "Tortosa", "Province": "Tarraconensis", "Latitude": 40.8125, "Longitude": 0.521111, "Earliest_Attested_Bishop": 516, "Elvira_306": "-", "Elvira_306 Attendance": false, "Zaragoza_380": "-", "Toledo_400": "-", "Tarragona_516": "Ursus", "Tarragona_516 Attendance": true, "Giron_517": "-", "Giron_517 Attendance": false, "Toledo_527": "-", "Toledo_527 Attendance": false, "Barcelona_540": "Asellus", "Barcelona_540 Attendance": true, "Lérida_546": "Maurilius", "Lérida_546 Attendance": true, "Valencia_546": "-", "Valencia_546 Attendance": false, "Braga_561": "-", "Braga_561 Attendance": false, "Braga_572": "-", "Braga_572 Attendance": false, "Toledo_589": "Iulianus, Froisclus (Arrian)", "Toledo_589 Attendance": true, "Notes": null, "Toledo_400 Attendance": false, "Zaragoza_380 Attendance": false }, "geometry": { "type": "Point", "coordinates": [ 0.521111, 40.8125 ] } },
    { "type": "Feature", "properties": { "See": "Dianium / Dénia", "Pleiades_URL": "https://pleiades.stoa.org/places/265880" , "Modern_City": "Dénia", "Province": "Carthaginensis", "Latitude": 38.840174, "Longitude": 0.106272, "Earliest_Attested_Bishop": 636, "Elvira_306": "-", "Elvira_306 Attendance": false, "Zaragoza_380": "-", "Toledo_400": "-", "Tarragona_516": "-", "Tarragona_516 Attendance": false, "Giron_517": "-", "Giron_517 Attendance": false, "Toledo_527": "-", "Toledo_527 Attendance": false, "Barcelona_540": "-", "Barcelona_540 Attendance": false, "Lérida_546": "-", "Lérida_546 Attendance": false, "Valencia_546": "-", "Valencia_546 Attendance": false, "Braga_561": "-", "Braga_561 Attendance": false, "Braga_572": "-", "Braga_572 Attendance": false, "Toledo_589": "-", "Toledo_589 Attendance": false, "Notes": null, "Toledo_400 Attendance": false, "Zaragoza_380 Attendance": false }, "geometry": { "type": "Point", "coordinates": [ 0.106272, 38.840174 ] } },
    { "type": "Feature", "properties": { "See": "Dumiensis monasterius", "Pleiades_URL": "https://pleiades.stoa.org/places/236454" , "Modern_City": "Dume", "Province": "Gallaecia", "Latitude": 41.570833, "Longitude": -8.433611, "Earliest_Attested_Bishop": 556, "Elvira_306": "-", "Elvira_306 Attendance": false, "Zaragoza_380": "-", "Toledo_400": "-", "Tarragona_516": "-", "Tarragona_516 Attendance": false, "Giron_517": "-", "Giron_517 Attendance": false, "Toledo_527": "-", "Toledo_527 Attendance": false, "Barcelona_540": "-", "Barcelona_540 Attendance": false, "Lérida_546": "-", "Lérida_546 Attendance": false, "Valencia_546": "-", "Valencia_546 Attendance": false, "Braga_561": "Martin", "Braga_561 Attendance": true, "Braga_572": "-", "Braga_572 Attendance": false, "Toledo_589": "Iohannes", "Toledo_589 Attendance": true, "Notes": null, "Toledo_400 Attendance": false, "Zaragoza_380 Attendance": false }, "geometry": { "type": "Point", "coordinates": [ -8.433611, 41.570833 ] } },
    { "type": "Feature", "properties": { "See": "Ebusus", "Pleiades_URL": "https://pleiades.stoa.org/places/265883" , "Modern_City": "Ibiza", "Province": "Baleares", "Latitude": 38.981173, "Longitude": 1.422904, "Earliest_Attested_Bishop": 484, "Elvira_306": "-", "Elvira_306 Attendance": false, "Zaragoza_380": "-", "Toledo_400": "-", "Tarragona_516": "-", "Tarragona_516 Attendance": false, "Giron_517": "-", "Giron_517 Attendance": false, "Toledo_527": "-", "Toledo_527 Attendance": false, "Barcelona_540": "-", "Barcelona_540 Attendance": false, "Lérida_546": "-", "Lérida_546 Attendance": false, "Valencia_546": "-", "Valencia_546 Attendance": false, "Braga_561": "-", "Braga_561 Attendance": false, "Braga_572": "-", "Braga_572 Attendance": false, "Toledo_589": "-", "Toledo_589 Attendance": false, "Notes": null, "Toledo_400 Attendance": false, "Zaragoza_380 Attendance": false }, "geometry": { "type": "Point", "coordinates": [ 1.422904, 38.981173 ] } },
    { "type": "Feature", "properties": { "See": "Egara", "Pleiades_URL": "https://pleiades.stoa.org/places/246377" , "Modern_City": "Terrassa", "Province": "Tarraconensis", "Latitude": 41.566583, "Longitude": 2.018277, "Earliest_Attested_Bishop": 465, "Elvira_306": "-", "Elvira_306 Attendance": false, "Zaragoza_380": "-", "Toledo_400": "-", "Tarragona_516": "Nibridius", "Tarragona_516 Attendance": true, "Giron_517": "Nibridius", "Giron_517 Attendance": true, "Toledo_527": "Arrives late (Nibridius)", "Toledo_527 Attendance": true, "Barcelona_540": "-", "Barcelona_540 Attendance": false, "Lérida_546": "Taurus", "Lérida_546 Attendance": true, "Valencia_546": "-", "Valencia_546 Attendance": false, "Braga_561": "-", "Braga_561 Attendance": false, "Braga_572": "-", "Braga_572 Attendance": false, "Toledo_589": "Sofronius", "Toledo_589 Attendance": true, "Notes": null, "Toledo_400 Attendance": false, "Zaragoza_380 Attendance": false }, "geometry": { "type": "Point", "coordinates": [ 2.018277, 41.566583 ] } },
    { "type": "Feature", "properties": { "See": "Egestana", "Pleiades_URL": "https://pleiades.stoa.org/places/256220" , "Modern_City": "Idanha", "Province": "Lusitania", "Latitude": 39.996944, "Longitude": -7.144444, "Earliest_Attested_Bishop": 572, "Elvira_306": "-", "Elvira_306 Attendance": false, "Zaragoza_380": "-", "Toledo_400": "-", "Tarragona_516": "-", "Tarragona_516 Attendance": false, "Giron_517": "-", "Giron_517 Attendance": false, "Toledo_527": "-", "Toledo_527 Attendance": false, "Barcelona_540": "-", "Barcelona_540 Attendance": false, "Lérida_546": "-", "Lérida_546 Attendance": false, "Valencia_546": "-", "Valencia_546 Attendance": false, "Braga_561": "-", "Braga_561 Attendance": false, "Braga_572": "Adoricus", "Braga_572 Attendance": true, "Toledo_589": "-", "Toledo_589 Attendance": false, "Notes": null, "Toledo_400 Attendance": false, "Zaragoza_380 Attendance": false }, "geometry": { "type": "Point", "coordinates": [ -7.144444, 39.996944 ] } },
    { "type": "Feature", "properties": { "See": "Elbora", "Pleiades_URL": "https://pleiades.stoa.org/places/256151" , "Modern_City": "Evora", "Province": "Lusitania", "Latitude": 38.5725, "Longitude": -7.907222, "Earliest_Attested_Bishop": 306, "Elvira_306": "Quintianus", "Elvira_306 Attendance": true, "Zaragoza_380": "-", "Toledo_400": "-", "Tarragona_516": "-", "Tarragona_516 Attendance": false, "Giron_517": "-", "Giron_517 Attendance": false, "Toledo_527": "-", "Toledo_527 Attendance": false, "Barcelona_540": "-", "Barcelona_540 Attendance": false, "Lérida_546": "-", "Lérida_546 Attendance": false, "Valencia_546": "-", "Valencia_546 Attendance": false, "Braga_561": "-", "Braga_561 Attendance": false, "Braga_572": "-", "Braga_572 Attendance": false, "Toledo_589": "-", "Toledo_589 Attendance": false, "Notes": null, "Toledo_400 Attendance": false, "Zaragoza_380 Attendance": false }, "geometry": { "type": "Point", "coordinates": [ -7.907222, 38.5725 ] } },
    { "type": "Feature", "properties": { "See": "Elenensis", "Pleiades_URL": "https://pleiades.stoa.org/places/246433" , "Modern_City": "Elne", "Province": "Gallia", "Latitude": 42.600278, "Longitude": 2.971111, "Earliest_Attested_Bishop": 571, "Elvira_306": "-", "Elvira_306 Attendance": false, "Zaragoza_380": "-", "Toledo_400": "-", "Tarragona_516": "-", "Tarragona_516 Attendance": false, "Giron_517": "-", "Giron_517 Attendance": false, "Toledo_527": "-", "Toledo_527 Attendance": false, "Barcelona_540": "-", "Barcelona_540 Attendance": false, "Lérida_546": "-", "Lérida_546 Attendance": false, "Valencia_546": "-", "Valencia_546 Attendance": false, "Braga_561": "-", "Braga_561 Attendance": false, "Braga_572": "-", "Braga_572 Attendance": false, "Toledo_589": "Benenatus", "Toledo_589 Attendance": true, "Notes": "Duchesne vol. 1, 319-320", "Toledo_400 Attendance": false, "Zaragoza_380 Attendance": false }, "geometry": { "type": "Point", "coordinates": [ 2.971111, 42.600278 ] } },
    { "type": "Feature", "properties": { "See": "Eliocroca", "Pleiades_URL": "https://pleiades.stoa.org/places/265891" , "Modern_City": "Lorca", "Province": "Carthaginensis", "Latitude": 37.68333, "Longitude": -1.7, "Earliest_Attested_Bishop": 306, "Elvira_306": "Successus", "Elvira_306 Attendance": true, "Zaragoza_380": "-", "Toledo_400": "-", "Tarragona_516": "-", "Tarragona_516 Attendance": false, "Giron_517": "-", "Giron_517 Attendance": false, "Toledo_527": "-", "Toledo_527 Attendance": false, "Barcelona_540": "-", "Barcelona_540 Attendance": false, "Lérida_546": "-", "Lérida_546 Attendance": false, "Valencia_546": "-", "Valencia_546 Attendance": false, "Braga_561": "-", "Braga_561 Attendance": false, "Braga_572": "-", "Braga_572 Attendance": false, "Toledo_589": "-", "Toledo_589 Attendance": false, "Notes": null, "Toledo_400 Attendance": false, "Zaragoza_380 Attendance": false }, "geometry": { "type": "Point", "coordinates": [ -1.7, 37.68333 ] } },
    { "type": "Feature", "properties": { "See": "Ep. Brittinorum", "Pleiades_URL": "-" , "Modern_City": "Unk", "Province": "Gallaecia", "Latitude": 43.338923, "Longitude": -7.316755, "Earliest_Attested_Bishop": 572, "Elvira_306": "-", "Elvira_306 Attendance": false, "Zaragoza_380": "-", "Toledo_400": "-", "Tarragona_516": "-", "Tarragona_516 Attendance": false, "Giron_517": "-", "Giron_517 Attendance": false, "Toledo_527": "-", "Toledo_527 Attendance": false, "Barcelona_540": "-", "Barcelona_540 Attendance": false, "Lérida_546": "-", "Lérida_546 Attendance": false, "Valencia_546": "-", "Valencia_546 Attendance": false, "Braga_561": "-", "Braga_561 Attendance": false, "Braga_572": "Mahiloc", "Braga_572 Attendance": true, "Toledo_589": "-", "Toledo_589 Attendance": false, "Notes": null, "Toledo_400 Attendance": false, "Zaragoza_380 Attendance": false }, "geometry": { "type": "Point", "coordinates": [ -7.316755, 43.338923 ] } },
    { "type": "Feature", "properties": { "See": "Hispalis", "Pleiades_URL": "https://pleiades.stoa.org/places/256210" , "Modern_City": "Seville", "Province": "Baetica", "Latitude": 37.389968, "Longitude": -5.993394, "Earliest_Attested_Bishop": 250, "Elvira_306": "Sabinus (M)", "Elvira_306 Attendance": true, "Zaragoza_380": "-", "Toledo_400": "-", "Tarragona_516": "-", "Tarragona_516 Attendance": false, "Giron_517": "-", "Giron_517 Attendance": false, "Toledo_527": "-", "Toledo_527 Attendance": false, "Barcelona_540": "-", "Barcelona_540 Attendance": false, "Lérida_546": "-", "Lérida_546 Attendance": false, "Valencia_546": "-", "Valencia_546 Attendance": false, "Braga_561": "-", "Braga_561 Attendance": false, "Braga_572": "-", "Braga_572 Attendance": false, "Toledo_589": "Leander (M)", "Toledo_589 Attendance": true, "Notes": null, "Toledo_400 Attendance": false, "Zaragoza_380 Attendance": false }, "geometry": { "type": "Point", "coordinates": [ -5.993394, 37.389968 ] } },
    { "type": "Feature", "properties": { "See": "Igabrum", "Pleiades_URL": "https://pleiades.stoa.org/places/265919" , "Modern_City": "Cabra", "Province": "Baetica", "Latitude": 37.471815, "Longitude": -4.433562, "Earliest_Attested_Bishop": 306, "Elvira_306": "Sinagius", "Elvira_306 Attendance": true, "Zaragoza_380": "-", "Toledo_400": "-", "Tarragona_516": "-", "Tarragona_516 Attendance": false, "Giron_517": "-", "Giron_517 Attendance": false, "Toledo_527": "-", "Toledo_527 Attendance": false, "Barcelona_540": "-", "Barcelona_540 Attendance": false, "Lérida_546": "-", "Lérida_546 Attendance": false, "Valencia_546": "-", "Valencia_546 Attendance": false, "Braga_561": "-", "Braga_561 Attendance": false, "Braga_572": "-", "Braga_572 Attendance": false, "Toledo_589": "Iohannes", "Toledo_589 Attendance": true, "Notes": null, "Toledo_400 Attendance": false, "Zaragoza_380 Attendance": false }, "geometry": { "type": "Point", "coordinates": [ -4.433562, 37.471815 ] } },
    { "type": "Feature", "properties": { "See": "Ilerda", "Pleiades_URL": "https://pleiades.stoa.org/places/246431" , "Modern_City": "Lérida", "Province": "Tarraconensis", "Latitude": 41.61773, "Longitude": 0.626261, "Earliest_Attested_Bishop": 419, "Elvira_306": "-", "Elvira_306 Attendance": false, "Zaragoza_380": "-", "Toledo_400": "-", "Tarragona_516": "-", "Tarragona_516 Attendance": false, "Giron_517": "-", "Giron_517 Attendance": false, "Toledo_527": "-", "Toledo_527 Attendance": false, "Barcelona_540": "Andreas", "Barcelona_540 Attendance": true, "Lérida_546": "Februarius", "Lérida_546 Attendance": true, "Valencia_546": "-", "Valencia_546 Attendance": false, "Braga_561": "-", "Braga_561 Attendance": false, "Braga_572": "-", "Braga_572 Attendance": false, "Toledo_589": "Polibius", "Toledo_589 Attendance": true, "Notes": null, "Toledo_400 Attendance": false, "Zaragoza_380 Attendance": false }, "geometry": { "type": "Point", "coordinates": [ 0.626261, 41.61773 ] } },
    { "type": "Feature", "properties": { "See": "Iliberis", "Pleiades_URL": "https://pleiades.stoa.org/places/265921" , "Modern_City": "Granada?", "Province": "Baetica", "Latitude": 37.176449, "Longitude": -3.598786, "Earliest_Attested_Bishop": 306, "Elvira_306": "Flavianus", "Elvira_306 Attendance": true, "Zaragoza_380": "absent (Gregorius)", "Toledo_400": "-", "Tarragona_516": "Orontius", "Tarragona_516 Attendance": true, "Giron_517": "Orontius", "Giron_517 Attendance": true, "Toledo_527": "-", "Toledo_527 Attendance": false, "Barcelona_540": "-", "Barcelona_540 Attendance": false, "Lérida_546": "-", "Lérida_546 Attendance": false, "Valencia_546": "-", "Valencia_546 Attendance": false, "Braga_561": "-", "Braga_561 Attendance": false, "Braga_572": "-", "Braga_572 Attendance": false, "Toledo_589": "Stephanus, Petrus (Arrian?)", "Toledo_589 Attendance": true, "Notes": null, "Toledo_400 Attendance": false, "Zaragoza_380 Attendance": true }, "geometry": { "type": "Point", "coordinates": [ -3.598786, 37.176449 ] } },
    { "type": "Feature", "properties": { "See": "Ilipla", "Pleiades_URL": "https://pleiades.stoa.org/places/256221" , "Modern_City": "Niebla", "Province": "Baetica", "Latitude": 37.361439, "Longitude": -6.67787, "Earliest_Attested_Bishop": 509, "Elvira_306": "-", "Elvira_306 Attendance": false, "Zaragoza_380": "-", "Toledo_400": "-", "Tarragona_516": "-", "Tarragona_516 Attendance": false, "Giron_517": "-", "Giron_517 Attendance": false, "Toledo_527": "-", "Toledo_527 Attendance": false, "Barcelona_540": "-", "Barcelona_540 Attendance": false, "Lérida_546": "-", "Lérida_546 Attendance": false, "Valencia_546": "-", "Valencia_546 Attendance": false, "Braga_561": "-", "Braga_561 Attendance": false, "Braga_572": "-", "Braga_572 Attendance": false, "Toledo_589": "Basilius", "Toledo_589 Attendance": true, "Notes": "Date for bishop d. 509, Bojeos", "Toledo_400 Attendance": false, "Zaragoza_380 Attendance": false }, "geometry": { "type": "Point", "coordinates": [ -6.67787, 37.361439 ] } },
    { "type": "Feature", "properties": { "See": "Iria Flavia", "Pleiades_URL": "https://pleiades.stoa.org/places/236491" , "Modern_City": "Padrón", "Province": "Gallaecia", "Latitude": 42.74573, "Longitude": -8.655417, "Earliest_Attested_Bishop": 400, "Elvira_306": "-", "Elvira_306 Attendance": false, "Zaragoza_380": "-", "Toledo_400": "Ortigius?", "Tarragona_516": "-", "Tarragona_516 Attendance": false, "Giron_517": "-", "Giron_517 Attendance": false, "Toledo_527": "-", "Toledo_527 Attendance": false, "Barcelona_540": "-", "Barcelona_540 Attendance": false, "Lérida_546": "-", "Lérida_546 Attendance": false, "Valencia_546": "-", "Valencia_546 Attendance": false, "Braga_561": "Andreas", "Braga_561 Attendance": true, "Braga_572": "Andreas", "Braga_572 Attendance": true, "Toledo_589": "Dominicus", "Toledo_589 Attendance": true, "Notes": null, "Toledo_400 Attendance": true, "Zaragoza_380 Attendance": false }, "geometry": { "type": "Point", "coordinates": [ -8.655417, 42.74573 ] } },
    { "type": "Feature", "properties": { "See": "Italica", "Pleiades_URL": "https://pleiades.stoa.org/places/256231" , "Modern_City": "Santiponce", "Province": "Baetica", "Latitude": 37.442917, "Longitude": -6.04717, "Earliest_Attested_Bishop": 589, "Elvira_306": "-", "Elvira_306 Attendance": false, "Zaragoza_380": "-", "Toledo_400": "-", "Tarragona_516": "-", "Tarragona_516 Attendance": false, "Giron_517": "-", "Giron_517 Attendance": false, "Toledo_527": "-", "Toledo_527 Attendance": false, "Barcelona_540": "-", "Barcelona_540 Attendance": false, "Lérida_546": "-", "Lérida_546 Attendance": false, "Valencia_546": "-", "Valencia_546 Attendance": false, "Braga_561": "-", "Braga_561 Attendance": false, "Braga_572": "-", "Braga_572 Attendance": false, "Toledo_589": "Eulalius", "Toledo_589 Attendance": true, "Notes": null, "Toledo_400 Attendance": false, "Zaragoza_380 Attendance": false }, "geometry": { "type": "Point", "coordinates": [ -6.04717, 37.442917 ] } },
    { "type": "Feature", "properties": { "See": "Lamecum", "Pleiades_URL": "https://pleiades.stoa.org/places/236504" , "Modern_City": "Lamego", "Province": "Lusitania", "Latitude": 41.083333, "Longitude": -7.866667, "Earliest_Attested_Bishop": 572, "Elvira_306": "-", "Elvira_306 Attendance": false, "Zaragoza_380": "-", "Toledo_400": "-", "Tarragona_516": "-", "Tarragona_516 Attendance": false, "Giron_517": "-", "Giron_517 Attendance": false, "Toledo_527": "-", "Toledo_527 Attendance": false, "Barcelona_540": "-", "Barcelona_540 Attendance": false, "Lérida_546": "-", "Lérida_546 Attendance": false, "Valencia_546": "-", "Valencia_546 Attendance": false, "Braga_561": "-", "Braga_561 Attendance": false, "Braga_572": "Sariniarius", "Braga_572 Attendance": true, "Toledo_589": "Philippus", "Toledo_589 Attendance": true, "Notes": null, "Toledo_400 Attendance": false, "Zaragoza_380 Attendance": false }, "geometry": { "type": "Point", "coordinates": [ -7.866667, 41.083333 ] } },
    { "type": "Feature", "properties": { "See": "Legio", "Pleiades_URL": "https://pleiades.stoa.org/places/236512" , "Modern_City": "León", "Province": "Gallaecia", "Latitude": 42.599267, "Longitude": -5.567061, "Earliest_Attested_Bishop": 254, "Elvira_306": "Decentius", "Elvira_306 Attendance": true, "Zaragoza_380": "-", "Toledo_400": "-", "Tarragona_516": "-", "Tarragona_516 Attendance": false, "Giron_517": "-", "Giron_517 Attendance": false, "Toledo_527": "-", "Toledo_527 Attendance": false, "Barcelona_540": "-", "Barcelona_540 Attendance": false, "Lérida_546": "-", "Lérida_546 Attendance": false, "Valencia_546": "-", "Valencia_546 Attendance": false, "Braga_561": "-", "Braga_561 Attendance": false, "Braga_572": "-", "Braga_572 Attendance": false, "Toledo_589": "-", "Toledo_589 Attendance": false, "Notes": null, "Toledo_400 Attendance": false, "Zaragoza_380 Attendance": false }, "geometry": { "type": "Point", "coordinates": [ -5.567061, 42.599267 ] } },
    { "type": "Feature", "properties": { "See": "Lucus Augusti", "Pleiades_URL": "https://pleiades.stoa.org/places/236525" , "Modern_City": "Lugo", "Province": "Gallaecia", "Latitude": 43.011562, "Longitude": -7.558009, "Earliest_Attested_Bishop": 433, "Elvira_306": "-", "Elvira_306 Attendance": false, "Zaragoza_380": "-", "Toledo_400": "-", "Tarragona_516": "-", "Tarragona_516 Attendance": false, "Giron_517": "-", "Giron_517 Attendance": false, "Toledo_527": "-", "Toledo_527 Attendance": false, "Barcelona_540": "-", "Barcelona_540 Attendance": false, "Lérida_546": "-", "Lérida_546 Attendance": false, "Valencia_546": "-", "Valencia_546 Attendance": false, "Braga_561": "-", "Braga_561 Attendance": false, "Braga_572": "Nitigis (M)", "Braga_572 Attendance": true, "Toledo_589": "Beccila, Nitigius signed for by Partardus", "Toledo_589 Attendance": true, "Notes": null, "Toledo_400 Attendance": false, "Zaragoza_380 Attendance": false }, "geometry": { "type": "Point", "coordinates": [ -7.558009, 43.011562 ] } },
    { "type": "Feature", "properties": { "See": "Lutuba", "Pleiades_URL": "https://pleiades.stoa.org/places/148121" , "Modern_City": "Lodève", "Province": "Gallia", "Latitude": 43.731667, "Longitude": 3.319444, "Earliest_Attested_Bishop": 421, "Elvira_306": "-", "Elvira_306 Attendance": false, "Zaragoza_380": "-", "Toledo_400": "-", "Tarragona_516": "-", "Tarragona_516 Attendance": false, "Giron_517": "-", "Giron_517 Attendance": false, "Toledo_527": "-", "Toledo_527 Attendance": false, "Barcelona_540": "-", "Barcelona_540 Attendance": false, "Lérida_546": "-", "Lérida_546 Attendance": false, "Valencia_546": "-", "Valencia_546 Attendance": false, "Braga_561": "-", "Braga_561 Attendance": false, "Braga_572": "-", "Braga_572 Attendance": false, "Toledo_589": "Agripinus", "Toledo_589 Attendance": true, "Notes": "Duchesne vol. 1, 313-314", "Toledo_400 Attendance": false, "Zaragoza_380 Attendance": false }, "geometry": { "type": "Point", "coordinates": [ 3.319444, 43.731667 ] } },
    { "type": "Feature", "properties": { "See": "Magalona", "Pleiades_URL": "https://pleiades.stoa.org/places/148123" , "Modern_City": "Maguelonne", "Province": "Gallia", "Latitude": 43.618458, "Longitude": 4.008397, "Earliest_Attested_Bishop": 589, "Elvira_306": "-", "Elvira_306 Attendance": false, "Zaragoza_380": "-", "Toledo_400": "-", "Tarragona_516": "-", "Tarragona_516 Attendance": false, "Giron_517": "-", "Giron_517 Attendance": false, "Toledo_527": "-", "Toledo_527 Attendance": false, "Barcelona_540": "-", "Barcelona_540 Attendance": false, "Lérida_546": "-", "Lérida_546 Attendance": false, "Valencia_546": "-", "Valencia_546 Attendance": false, "Braga_561": "-", "Braga_561 Attendance": false, "Braga_572": "-", "Braga_572 Attendance": false, "Toledo_589": "Archdeacon (Genesius)", "Toledo_589 Attendance": true, "Notes": "Duchesne vol. 1, 318-319", "Toledo_400 Attendance": false, "Zaragoza_380 Attendance": false }, "geometry": { "type": "Point", "coordinates": [ 4.008397, 43.618458 ] } },
    { "type": "Feature", "properties": { "See": "Magona", "Pleiades_URL": "https://pleiades.stoa.org/places/265960" , "Modern_City": "Menorca (Mahon?)", "Province": "Baleares", "Latitude": 39.888268, "Longitude": 4.265599, "Earliest_Attested_Bishop": 418, "Elvira_306": "-", "Elvira_306 Attendance": false, "Zaragoza_380": "-", "Toledo_400": "-", "Tarragona_516": "-", "Tarragona_516 Attendance": false, "Giron_517": "-", "Giron_517 Attendance": false, "Toledo_527": "-", "Toledo_527 Attendance": false, "Barcelona_540": "-", "Barcelona_540 Attendance": false, "Lérida_546": "-", "Lérida_546 Attendance": false, "Valencia_546": "-", "Valencia_546 Attendance": false, "Braga_561": "-", "Braga_561 Attendance": false, "Braga_572": "-", "Braga_572 Attendance": false, "Toledo_589": "-", "Toledo_589 Attendance": false, "Notes": null, "Toledo_400 Attendance": false, "Zaragoza_380 Attendance": false }, "geometry": { "type": "Point", "coordinates": [ 4.265599, 39.888268 ] } },
    { "type": "Feature", "properties": { "See": "Maiorca", "Pleiades_URL": "-" , "Modern_City": "Mallorca", "Province": "Baleares", "Latitude": 39.581457, "Longitude": 2.654676, "Earliest_Attested_Bishop": 484, "Elvira_306": "-", "Elvira_306 Attendance": false, "Zaragoza_380": "-", "Toledo_400": "-", "Tarragona_516": "-", "Tarragona_516 Attendance": false, "Giron_517": "-", "Giron_517 Attendance": false, "Toledo_527": "-", "Toledo_527 Attendance": false, "Barcelona_540": "-", "Barcelona_540 Attendance": false, "Lérida_546": "-", "Lérida_546 Attendance": false, "Valencia_546": "-", "Valencia_546 Attendance": false, "Braga_561": "-", "Braga_561 Attendance": false, "Braga_572": "-", "Braga_572 Attendance": false, "Toledo_589": "-", "Toledo_589 Attendance": false, "Notes": null, "Toledo_400 Attendance": false, "Zaragoza_380 Attendance": false }, "geometry": { "type": "Point", "coordinates": [ 2.654676, 39.581457 ] } },
    { "type": "Feature", "properties": { "See": "Malaca", "Pleiades_URL": "https://pleiades.stoa.org/places/265963" , "Modern_City": "Málaga", "Province": "Baetica", "Latitude": 36.720008, "Longitude": -4.419993, "Earliest_Attested_Bishop": 290, "Elvira_306": "Patricius", "Elvira_306 Attendance": true, "Zaragoza_380": "-", "Toledo_400": "-", "Tarragona_516": "-", "Tarragona_516 Attendance": false, "Giron_517": "-", "Giron_517 Attendance": false, "Toledo_527": "-", "Toledo_527 Attendance": false, "Barcelona_540": "-", "Barcelona_540 Attendance": false, "Lérida_546": "-", "Lérida_546 Attendance": false, "Valencia_546": "-", "Valencia_546 Attendance": false, "Braga_561": "-", "Braga_561 Attendance": false, "Braga_572": "-", "Braga_572 Attendance": false, "Toledo_589": "-", "Toledo_589 Attendance": false, "Notes": null, "Toledo_400 Attendance": false, "Zaragoza_380 Attendance": false }, "geometry": { "type": "Point", "coordinates": [ -4.419993, 36.720008 ] } },
    { "type": "Feature", "properties": { "See": "Mentesa Bastia", "Pleiades_URL": "https://pleiades.stoa.org/places/265970" , "Modern_City": "La Guardia", "Province": "Carthaginensis", "Latitude": 37.741944, "Longitude": -3.6925, "Earliest_Attested_Bishop": 306, "Elvira_306": "Pardus", "Elvira_306 Attendance": true, "Zaragoza_380": "-", "Toledo_400": "-", "Tarragona_516": "-", "Tarragona_516 Attendance": false, "Giron_517": "-", "Giron_517 Attendance": false, "Toledo_527": "-", "Toledo_527 Attendance": false, "Barcelona_540": "-", "Barcelona_540 Attendance": false, "Lérida_546": "-", "Lérida_546 Attendance": false, "Valencia_546": "-", "Valencia_546 Attendance": false, "Braga_561": "-", "Braga_561 Attendance": false, "Braga_572": "-", "Braga_572 Attendance": false, "Toledo_589": "Iohannes", "Toledo_589 Attendance": true, "Notes": null, "Toledo_400 Attendance": false, "Zaragoza_380 Attendance": false }, "geometry": { "type": "Point", "coordinates": [ -3.6925, 37.741944 ] } },
    { "type": "Feature", "properties": { "See": "Narbonne", "Pleiades_URL": "https://pleiades.stoa.org/places/246347" , "Modern_City": "Narbonne", "Province": "Gallia", "Latitude": 43.184722, "Longitude": 3.003611, "Earliest_Attested_Bishop": 250, "Elvira_306": "-", "Elvira_306 Attendance": false, "Zaragoza_380": "-", "Toledo_400": "-", "Tarragona_516": "-", "Tarragona_516 Attendance": false, "Giron_517": "-", "Giron_517 Attendance": false, "Toledo_527": "-", "Toledo_527 Attendance": false, "Barcelona_540": "-", "Barcelona_540 Attendance": false, "Lérida_546": "-", "Lérida_546 Attendance": false, "Valencia_546": "-", "Valencia_546 Attendance": false, "Braga_561": "-", "Braga_561 Attendance": false, "Braga_572": "-", "Braga_572 Attendance": false, "Toledo_589": "Migetius (M)", "Toledo_589 Attendance": true, "Notes": "Duchesne vol. 1, 302", "Toledo_400 Attendance": false, "Zaragoza_380 Attendance": false }, "geometry": { "type": "Point", "coordinates": [ 3.003611, 43.184722 ] } },
    { "type": "Feature", "properties": { "See": "Nemause", "Pleiades_URL": "https://pleiades.stoa.org/places/148142" , "Modern_City": "Nimes", "Province": "Gallia", "Latitude": 43.836944, "Longitude": 4.36, "Earliest_Attested_Bishop": 396, "Elvira_306": "-", "Elvira_306 Attendance": false, "Zaragoza_380": "-", "Toledo_400": "-", "Tarragona_516": "-", "Tarragona_516 Attendance": false, "Giron_517": "-", "Giron_517 Attendance": false, "Toledo_527": "-", "Toledo_527 Attendance": false, "Barcelona_540": "-", "Barcelona_540 Attendance": false, "Lérida_546": "-", "Lérida_546 Attendance": false, "Valencia_546": "-", "Valencia_546 Attendance": false, "Braga_561": "-", "Braga_561 Attendance": false, "Braga_572": "-", "Braga_572 Attendance": false, "Toledo_589": "Archdeacon (Valerianus)", "Toledo_589 Attendance": true, "Notes": "Duchesne vol. 1, 310-313", "Toledo_400 Attendance": false, "Zaragoza_380 Attendance": false }, "geometry": { "type": "Point", "coordinates": [ 4.36, 43.836944 ] } },
    { "type": "Feature", "properties": { "See": "Olisipo", "Pleiades_URL": "https://pleiades.stoa.org/places/256338" , "Modern_City": "Lisbon", "Province": "Lusitania", "Latitude": 38.709857, "Longitude": -9.132594, "Earliest_Attested_Bishop": 357, "Elvira_306": "-", "Elvira_306 Attendance": false, "Zaragoza_380": "-", "Toledo_400": "-", "Tarragona_516": "-", "Tarragona_516 Attendance": false, "Giron_517": "-", "Giron_517 Attendance": false, "Toledo_527": "-", "Toledo_527 Attendance": false, "Barcelona_540": "-", "Barcelona_540 Attendance": false, "Lérida_546": "-", "Lérida_546 Attendance": false, "Valencia_546": "-", "Valencia_546 Attendance": false, "Braga_561": "-", "Braga_561 Attendance": false, "Braga_572": "-", "Braga_572 Attendance": false, "Toledo_589": "Paulus", "Toledo_589 Attendance": true, "Notes": null, "Toledo_400 Attendance": false, "Zaragoza_380 Attendance": false }, "geometry": { "type": "Point", "coordinates": [ -9.132594, 38.709857 ] } },
    { "type": "Feature", "properties": { "See": "Oretum", "Pleiades_URL": "https://pleiades.stoa.org/places/265990" , "Modern_City": "Granátula", "Province": "Carthaginensis", "Latitude": 38.759706, "Longitude": -3.718164, "Earliest_Attested_Bishop": 589, "Elvira_306": "-", "Elvira_306 Attendance": false, "Zaragoza_380": "-", "Toledo_400": "-", "Tarragona_516": "-", "Tarragona_516 Attendance": false, "Giron_517": "-", "Giron_517 Attendance": false, "Toledo_527": "-", "Toledo_527 Attendance": false, "Barcelona_540": "-", "Barcelona_540 Attendance": false, "Lérida_546": "-", "Lérida_546 Attendance": false, "Valencia_546": "-", "Valencia_546 Attendance": false, "Braga_561": "-", "Braga_561 Attendance": false, "Braga_572": "-", "Braga_572 Attendance": false, "Toledo_589": "Andonius", "Toledo_589 Attendance": true, "Notes": null, "Toledo_400 Attendance": false, "Zaragoza_380 Attendance": false }, "geometry": { "type": "Point", "coordinates": [ -3.718164, 38.759706 ] } },
    { "type": "Feature", "properties": { "See": "Osca", "Pleiades_URL": "https://pleiades.stoa.org/places/246551" , "Modern_City": "Huesca", "Province": "Tarraconensis", "Latitude": 42.1401, "Longitude": -0.408897, "Earliest_Attested_Bishop": 419, "Elvira_306": "-", "Elvira_306 Attendance": false, "Zaragoza_380": "-", "Toledo_400": "-", "Tarragona_516": "-", "Tarragona_516 Attendance": false, "Giron_517": "-", "Giron_517 Attendance": false, "Toledo_527": "Arrives late (Elpidius)", "Toledo_527 Attendance": true, "Barcelona_540": "-", "Barcelona_540 Attendance": false, "Lérida_546": "-", "Lérida_546 Attendance": false, "Valencia_546": "-", "Valencia_546 Attendance": false, "Braga_561": "-", "Braga_561 Attendance": false, "Braga_572": "-", "Braga_572 Attendance": false, "Toledo_589": "Gabinius", "Toledo_589 Attendance": true, "Notes": null, "Toledo_400 Attendance": false, "Zaragoza_380 Attendance": false }, "geometry": { "type": "Point", "coordinates": [ -0.408897, 42.1401 ] } },
    { "type": "Feature", "properties": { "See": "Ossonoba", "Pleiades_URL": "https://pleiades.stoa.org/places/256341" , "Modern_City": "Faro", "Province": "Lusitania", "Latitude": 37.020893, "Longitude": -7.932552, "Earliest_Attested_Bishop": 306, "Elvira_306": "Vincentius", "Elvira_306 Attendance": true, "Zaragoza_380": "Itacius", "Toledo_400": "-", "Tarragona_516": "-", "Tarragona_516 Attendance": false, "Giron_517": "-", "Giron_517 Attendance": false, "Toledo_527": "-", "Toledo_527 Attendance": false, "Barcelona_540": "-", "Barcelona_540 Attendance": false, "Lérida_546": "-", "Lérida_546 Attendance": false, "Valencia_546": "-", "Valencia_546 Attendance": false, "Braga_561": "-", "Braga_561 Attendance": false, "Braga_572": "-", "Braga_572 Attendance": false, "Toledo_589": "Petrus", "Toledo_589 Attendance": true, "Notes": null, "Toledo_400 Attendance": false, "Zaragoza_380 Attendance": true }, "geometry": { "type": "Point", "coordinates": [ -7.932552, 37.020893 ] } },
    { "type": "Feature", "properties": { "See": "Palentia", "Pleiades_URL": "https://pleiades.stoa.org/places/236591" , "Modern_City": "Palencia", "Province": "Carthaginensis", "Latitude": 42.016667, "Longitude": -4.533333, "Earliest_Attested_Bishop": 456, "Elvira_306": "-", "Elvira_306 Attendance": false, "Zaragoza_380": "-", "Toledo_400": "-", "Tarragona_516": "-", "Tarragona_516 Attendance": false, "Giron_517": "-", "Giron_517 Attendance": false, "Toledo_527": "-", "Toledo_527 Attendance": false, "Barcelona_540": "-", "Barcelona_540 Attendance": false, "Lérida_546": "-", "Lérida_546 Attendance": false, "Valencia_546": "-", "Valencia_546 Attendance": false, "Braga_561": "-", "Braga_561 Attendance": false, "Braga_572": "-", "Braga_572 Attendance": false, "Toledo_589": "Murila", "Toledo_589 Attendance": true, "Notes": null, "Toledo_400 Attendance": false, "Zaragoza_380 Attendance": false }, "geometry": { "type": "Point", "coordinates": [ -4.533333, 42.016667 ] } },
    { "type": "Feature", "properties": { "See": "Pampilona", "Pleiades_URL": "https://pleiades.stoa.org/places/246567" , "Modern_City": "Pamplona", "Province": "Tarraconensis", "Latitude": 42.819455, "Longitude": -1.641054, "Earliest_Attested_Bishop": 300, "Elvira_306": "-", "Elvira_306 Attendance": false, "Zaragoza_380": "-", "Toledo_400": "-", "Tarragona_516": "-", "Tarragona_516 Attendance": false, "Giron_517": "-", "Giron_517 Attendance": false, "Toledo_527": "-", "Toledo_527 Attendance": false, "Barcelona_540": "-", "Barcelona_540 Attendance": false, "Lérida_546": "-", "Lérida_546 Attendance": false, "Valencia_546": "-", "Valencia_546 Attendance": false, "Braga_561": "-", "Braga_561 Attendance": false, "Braga_572": "-", "Braga_572 Attendance": false, "Toledo_589": "Lilliolus", "Toledo_589 Attendance": true, "Notes": null, "Toledo_400 Attendance": false, "Zaragoza_380 Attendance": false }, "geometry": { "type": "Point", "coordinates": [ -1.641054, 42.819455 ] } },
    { "type": "Feature", "properties": { "See": "Pax Iulia", "Pleiades_URL": "https://pleiades.stoa.org/places/256358" , "Modern_City": "Beja", "Province": "Lusitania", "Latitude": 38.01178, "Longitude": -7.862839, "Earliest_Attested_Bishop": 531, "Elvira_306": "-", "Elvira_306 Attendance": false, "Zaragoza_380": "-", "Toledo_400": "-", "Tarragona_516": "-", "Tarragona_516 Attendance": false, "Giron_517": "-", "Giron_517 Attendance": false, "Toledo_527": "-", "Toledo_527 Attendance": false, "Barcelona_540": "-", "Barcelona_540 Attendance": false, "Lérida_546": "-", "Lérida_546 Attendance": false, "Valencia_546": "-", "Valencia_546 Attendance": false, "Braga_561": "-", "Braga_561 Attendance": false, "Braga_572": "-", "Braga_572 Attendance": false, "Toledo_589": "Palmatius", "Toledo_589 Attendance": true, "Notes": null, "Toledo_400 Attendance": false, "Zaragoza_380 Attendance": false }, "geometry": { "type": "Point", "coordinates": [ -7.862839, 38.01178 ] } },
    { "type": "Feature", "properties": { "See": "Portucale", "Pleiades_URL": "https://pleiades.stoa.org/places/423012" , "Modern_City": "Porto", "Province": "Gallaecia", "Latitude": 41.157948, "Longitude": -8.629242, "Earliest_Attested_Bishop": 250, "Elvira_306": "-", "Elvira_306 Attendance": false, "Zaragoza_380": "-", "Toledo_400": "-", "Tarragona_516": "-", "Tarragona_516 Attendance": false, "Giron_517": "-", "Giron_517 Attendance": false, "Toledo_527": "-", "Toledo_527 Attendance": false, "Barcelona_540": "-", "Barcelona_540 Attendance": false, "Lérida_546": "-", "Lérida_546 Attendance": false, "Valencia_546": "-", "Valencia_546 Attendance": false, "Braga_561": "-", "Braga_561 Attendance": false, "Braga_572": "Viator?", "Braga_572 Attendance": true, "Toledo_589": "Constantius, Argiouttus", "Toledo_589 Attendance": true, "Notes": null, "Toledo_400 Attendance": false, "Zaragoza_380 Attendance": false }, "geometry": { "type": "Point", "coordinates": [ -8.629242, 41.157948 ] } },
    { "type": "Feature", "properties": { "See": "Saetabis", "Pleiades_URL": "https://pleiades.stoa.org/places/266018" , "Modern_City": "Játiva", "Province": "Carthaginensis", "Latitude": 38.988729, "Longitude": -0.519154, "Earliest_Attested_Bishop": 589, "Elvira_306": "-", "Elvira_306 Attendance": false, "Zaragoza_380": "-", "Toledo_400": "-", "Tarragona_516": "-", "Tarragona_516 Attendance": false, "Giron_517": "-", "Giron_517 Attendance": false, "Toledo_527": "-", "Toledo_527 Attendance": false, "Barcelona_540": "-", "Barcelona_540 Attendance": false, "Lérida_546": "-", "Lérida_546 Attendance": false, "Valencia_546": "-", "Valencia_546 Attendance": false, "Braga_561": "-", "Braga_561 Attendance": false, "Braga_572": "-", "Braga_572 Attendance": false, "Toledo_589": "Mutto", "Toledo_589 Attendance": true, "Notes": null, "Toledo_400 Attendance": false, "Zaragoza_380 Attendance": false }, "geometry": { "type": "Point", "coordinates": [ -0.519154, 38.988729 ] } },
    { "type": "Feature", "properties": { "See": "Sagontia", "Pleiades_URL": "https://pleiades.stoa.org/places/246639" , "Modern_City": "Sigüenza", "Province": "Carthaginensis", "Latitude": 41.066667, "Longitude": -2.65, "Earliest_Attested_Bishop": 589, "Elvira_306": "-", "Elvira_306 Attendance": false, "Zaragoza_380": "-", "Toledo_400": "-", "Tarragona_516": "-", "Tarragona_516 Attendance": false, "Giron_517": "-", "Giron_517 Attendance": false, "Toledo_527": "-", "Toledo_527 Attendance": false, "Barcelona_540": "-", "Barcelona_540 Attendance": false, "Lérida_546": "-", "Lérida_546 Attendance": false, "Valencia_546": "-", "Valencia_546 Attendance": false, "Braga_561": "-", "Braga_561 Attendance": false, "Braga_572": "-", "Braga_572 Attendance": false, "Toledo_589": "Protogenes", "Toledo_589 Attendance": true, "Notes": null, "Toledo_400 Attendance": false, "Zaragoza_380 Attendance": false }, "geometry": { "type": "Point", "coordinates": [ -2.65, 41.066667 ] } },
    { "type": "Feature", "properties": { "See": "Salamantica", "Pleiades_URL": "https://pleiades.stoa.org/places/236642" , "Modern_City": "Salamanca", "Province": "Lusitania", "Latitude": 40.965, "Longitude": -5.663889, "Earliest_Attested_Bishop": 83, "Elvira_306": "-", "Elvira_306 Attendance": false, "Zaragoza_380": "-", "Toledo_400": "-", "Tarragona_516": "-", "Tarragona_516 Attendance": false, "Giron_517": "-", "Giron_517 Attendance": false, "Toledo_527": "-", "Toledo_527 Attendance": false, "Barcelona_540": "-", "Barcelona_540 Attendance": false, "Lérida_546": "-", "Lérida_546 Attendance": false, "Valencia_546": "-", "Valencia_546 Attendance": false, "Braga_561": "-", "Braga_561 Attendance": false, "Braga_572": "-", "Braga_572 Attendance": false, "Toledo_589": "Leuterius", "Toledo_589 Attendance": true, "Notes": null, "Toledo_400 Attendance": false, "Zaragoza_380 Attendance": false }, "geometry": { "type": "Point", "coordinates": [ -5.663889, 40.965 ] } },
    { "type": "Feature", "properties": { "See": "Segobia", "Pleiades_URL": "https://pleiades.stoa.org/places/260634" , "Modern_City": "Segovia", "Province": "Carthaginensis", "Latitude": 40.95, "Longitude": -4.116667, "Earliest_Attested_Bishop": 531, "Elvira_306": "-", "Elvira_306 Attendance": false, "Zaragoza_380": "-", "Toledo_400": "-", "Tarragona_516": "-", "Tarragona_516 Attendance": false, "Giron_517": "-", "Giron_517 Attendance": false, "Toledo_527": "-", "Toledo_527 Attendance": false, "Barcelona_540": "-", "Barcelona_540 Attendance": false, "Lérida_546": "-", "Lérida_546 Attendance": false, "Valencia_546": "-", "Valencia_546 Attendance": false, "Braga_561": "-", "Braga_561 Attendance": false, "Braga_572": "-", "Braga_572 Attendance": false, "Toledo_589": "Petrus", "Toledo_589 Attendance": true, "Notes": null, "Toledo_400 Attendance": false, "Zaragoza_380 Attendance": false }, "geometry": { "type": "Point", "coordinates": [ -4.116667, 40.95 ] } },
    { "type": "Feature", "properties": { "See": "Segobriga", "Pleiades_URL": "https://pleiades.stoa.org/places/266036" , "Modern_City": "Segobriga", "Province": "Carthaginensis", "Latitude": 39.885258, "Longitude": -2.813357, "Earliest_Attested_Bishop": 550, "Elvira_306": "-", "Elvira_306 Attendance": false, "Zaragoza_380": "-", "Toledo_400": "-", "Tarragona_516": "-", "Tarragona_516 Attendance": false, "Giron_517": "-", "Giron_517 Attendance": false, "Toledo_527": "-", "Toledo_527 Attendance": false, "Barcelona_540": "-", "Barcelona_540 Attendance": false, "Lérida_546": "-", "Lérida_546 Attendance": false, "Valencia_546": "-", "Valencia_546 Attendance": false, "Braga_561": "-", "Braga_561 Attendance": false, "Braga_572": "-", "Braga_572 Attendance": false, "Toledo_589": "Proculus", "Toledo_589 Attendance": true, "Notes": null, "Toledo_400 Attendance": false, "Zaragoza_380 Attendance": false }, "geometry": { "type": "Point", "coordinates": [ -2.813357, 39.885258 ] } },
    { "type": "Feature", "properties": { "See": "Tarraco", "Pleiades_URL": "https://pleiades.stoa.org/places/246349" , "Modern_City": "Tarragona", "Province": "Tarraconensis", "Latitude": 41.119017, "Longitude": 1.258074, "Earliest_Attested_Bishop": 259, "Elvira_306": "-", "Elvira_306 Attendance": false, "Zaragoza_380": "Lucius? (M)", "Toledo_400": "-", "Tarragona_516": "Iohannes (M)", "Tarragona_516 Attendance": true, "Giron_517": "Iohannes (M)", "Giron_517 Attendance": true, "Toledo_527": "-", "Toledo_527 Attendance": false, "Barcelona_540": "Sergius (M)", "Barcelona_540 Attendance": true, "Lérida_546": "Sergius (M)", "Lérida_546 Attendance": true, "Valencia_546": "-", "Valencia_546 Attendance": false, "Braga_561": "-", "Braga_561 Attendance": false, "Braga_572": "-", "Braga_572 Attendance": false, "Toledo_589": "-", "Toledo_589 Attendance": false, "Notes": null, "Toledo_400 Attendance": false, "Zaragoza_380 Attendance": true }, "geometry": { "type": "Point", "coordinates": [ 1.258074, 41.119017 ] } },
    { "type": "Feature", "properties": { "See": "Tirassonensis", "Pleiades_URL": "https://pleiades.stoa.org/places/246712" , "Modern_City": "Tarazona", "Province": "Tarraconensis", "Latitude": 41.903012, "Longitude": -1.724984, "Earliest_Attested_Bishop": 449, "Elvira_306": "-", "Elvira_306 Attendance": false, "Zaragoza_380": "-", "Toledo_400": "-", "Tarragona_516": "-", "Tarragona_516 Attendance": false, "Giron_517": "-", "Giron_517 Attendance": false, "Toledo_527": "-", "Toledo_527 Attendance": false, "Barcelona_540": "-", "Barcelona_540 Attendance": false, "Lérida_546": "-", "Lérida_546 Attendance": false, "Valencia_546": "-", "Valencia_546 Attendance": false, "Braga_561": "-", "Braga_561 Attendance": false, "Braga_572": "-", "Braga_572 Attendance": false, "Toledo_589": "Stephanus", "Toledo_589 Attendance": true, "Notes": null, "Toledo_400 Attendance": false, "Zaragoza_380 Attendance": false }, "geometry": { "type": "Point", "coordinates": [ -1.724984, 41.903012 ] } },
    { "type": "Feature", "properties": { "See": "Toletum", "Pleiades_URL": "https://pleiades.stoa.org/places/266066" , "Modern_City": "Toledo", "Province": "Carthaginensis", "Latitude": 39.856509, "Longitude": -4.024031, "Earliest_Attested_Bishop": 306, "Elvira_306": "Melantius", "Elvira_306 Attendance": true, "Zaragoza_380": "Augencius?", "Toledo_400": "Asturius (M?)", "Tarragona_516": "-", "Tarragona_516 Attendance": false, "Giron_517": "-", "Giron_517 Attendance": false, "Toledo_527": "Montanus (M)", "Toledo_527 Attendance": true, "Barcelona_540": "-", "Barcelona_540 Attendance": false, "Lérida_546": "-", "Lérida_546 Attendance": false, "Valencia_546": "-", "Valencia_546 Attendance": false, "Braga_561": "-", "Braga_561 Attendance": false, "Braga_572": "-", "Braga_572 Attendance": false, "Toledo_589": "Eufemius (M, prov. Carpetaniae)", "Toledo_589 Attendance": true, "Notes": null, "Toledo_400 Attendance": true, "Zaragoza_380 Attendance": true }, "geometry": { "type": "Point", "coordinates": [ -4.024031, 39.856509 ] } },
    { "type": "Feature", "properties": { "See": "Tucci", "Pleiades_URL": "https://pleiades.stoa.org/places/266070" , "Modern_City": "Martos", "Province": "Baetica", "Latitude": 37.722778, "Longitude": -3.965833, "Earliest_Attested_Bishop": 306, "Elvira_306": "Camerinus", "Elvira_306 Attendance": true, "Zaragoza_380": "-", "Toledo_400": "-", "Tarragona_516": "-", "Tarragona_516 Attendance": false, "Giron_517": "-", "Giron_517 Attendance": false, "Toledo_527": "-", "Toledo_527 Attendance": false, "Barcelona_540": "-", "Barcelona_540 Attendance": false, "Lérida_546": "-", "Lérida_546 Attendance": false, "Valencia_546": "-", "Valencia_546 Attendance": false, "Braga_561": "-", "Braga_561 Attendance": false, "Braga_572": "-", "Braga_572 Attendance": false, "Toledo_589": "Velatus", "Toledo_589 Attendance": true, "Notes": null, "Toledo_400 Attendance": false, "Zaragoza_380 Attendance": false }, "geometry": { "type": "Point", "coordinates": [ -3.965833, 37.722778 ] } },
    { "type": "Feature", "properties": { "See": "Tudens", "Pleiades_URL": "https://pleiades.stoa.org/places/236694" , "Modern_City": "Tuy", "Province": "Gallaecia", "Latitude": 42.048056, "Longitude": -8.644444, "Earliest_Attested_Bishop": 572, "Elvira_306": "-", "Elvira_306 Attendance": false, "Zaragoza_380": "-", "Toledo_400": "-", "Tarragona_516": "-", "Tarragona_516 Attendance": false, "Giron_517": "-", "Giron_517 Attendance": false, "Toledo_527": "-", "Toledo_527 Attendance": false, "Barcelona_540": "-", "Barcelona_540 Attendance": false, "Lérida_546": "-", "Lérida_546 Attendance": false, "Valencia_546": "-", "Valencia_546 Attendance": false, "Braga_561": "-", "Braga_561 Attendance": false, "Braga_572": "Anila", "Braga_572 Attendance": true, "Toledo_589": "Neufila, Gardingus (Arrian?)", "Toledo_589 Attendance": true, "Notes": null, "Toledo_400 Attendance": false, "Zaragoza_380 Attendance": false }, "geometry": { "type": "Point", "coordinates": [ -8.644444, 42.048056 ] } },
    { "type": "Feature", "properties": { "See": "Urci", "Pleiades_URL": "https://pleiades.stoa.org/places/266085" , "Modern_City": "Ursi", "Province": "Carthaginensis", "Latitude": 36.915019, "Longitude": -2.449018, "Earliest_Attested_Bishop": 306, "Elvira_306": "Cantonius", "Elvira_306 Attendance": true, "Zaragoza_380": "-", "Toledo_400": "-", "Tarragona_516": "-", "Tarragona_516 Attendance": false, "Giron_517": "-", "Giron_517 Attendance": false, "Toledo_527": "-", "Toledo_527 Attendance": false, "Barcelona_540": "-", "Barcelona_540 Attendance": false, "Lérida_546": "-", "Lérida_546 Attendance": false, "Valencia_546": "-", "Valencia_546 Attendance": false, "Braga_561": "-", "Braga_561 Attendance": false, "Braga_572": "-", "Braga_572 Attendance": false, "Toledo_589": "-", "Toledo_589 Attendance": false, "Notes": null, "Toledo_400 Attendance": false, "Zaragoza_380 Attendance": false }, "geometry": { "type": "Point", "coordinates": [ -2.449018, 36.915019 ] } },
    { "type": "Feature", "properties": { "See": "Urgell", "Pleiades_URL": "https://pleiades.stoa.org/places/246718" , "Modern_City": "Urgell", "Province": "Tarraconensis", "Latitude": 42.357778, "Longitude": 1.458611, "Earliest_Attested_Bishop": 517, "Elvira_306": "-", "Elvira_306 Attendance": false, "Zaragoza_380": "-", "Toledo_400": "-", "Tarragona_516": "-", "Tarragona_516 Attendance": false, "Giron_517": "-", "Giron_517 Attendance": false, "Toledo_527": "Arrives late (Justus)", "Toledo_527 Attendance": true, "Barcelona_540": "-", "Barcelona_540 Attendance": false, "Lérida_546": "Iustus?", "Lérida_546 Attendance": true, "Valencia_546": "-", "Valencia_546 Attendance": false, "Braga_561": "-", "Braga_561 Attendance": false, "Braga_572": "-", "Braga_572 Attendance": false, "Toledo_589": "Simplicius", "Toledo_589 Attendance": true, "Notes": null, "Toledo_400 Attendance": false, "Zaragoza_380 Attendance": false }, "geometry": { "type": "Point", "coordinates": [ 1.458611, 42.357778 ] } },
    { "type": "Feature", "properties": { "See": "Valencia", "Pleiades_URL": "https://pleiades.stoa.org/places/266090" , "Modern_City": "Valencia", "Province": "Carthaginensis", "Latitude": 39.476277, "Longitude": -0.375223, "Earliest_Attested_Bishop": 527, "Elvira_306": "-", "Elvira_306 Attendance": false, "Zaragoza_380": "-", "Toledo_400": "-", "Tarragona_516": "-", "Tarragona_516 Attendance": false, "Giron_517": "-", "Giron_517 Attendance": false, "Toledo_527": "Arrives late (Justinianus)", "Toledo_527 Attendance": true, "Barcelona_540": "-", "Barcelona_540 Attendance": false, "Lérida_546": "-", "Lérida_546 Attendance": false, "Valencia_546": "Justinianus", "Valencia_546 Attendance": true, "Braga_561": "-", "Braga_561 Attendance": false, "Braga_572": "-", "Braga_572 Attendance": false, "Toledo_589": "Vuiligisclus, Celsinus", "Toledo_589 Attendance": true, "Notes": null, "Toledo_400 Attendance": false, "Zaragoza_380 Attendance": false }, "geometry": { "type": "Point", "coordinates": [ -0.375223, 39.476277 ] } }
    ],
  "council_stats": {
    "Elvira_306": {
      "total_signers": 19,
      "unknown_signers": 0,
      "potential_bishops": 26,
      "percent_possible_signers": 0.7307692307692307
    },
    "Zaragoza_380": {
      "total_signers": 12,
      "unknown_signers": 3,
      "potential_bishops": 31,
      "percent_possible_signers": 0.3870967741935484
    },
    "Toledo_400": {
      "total_signers": 19,
      "unknown_signers": 15,
      "potential_bishops": 36,
      "percent_possible_signers": 0.5277777777777778
    },
    "Tarragona_516": {
      "total_signers": 10,
      "unknown_signers": 0,
      "potential_bishops": 55,
      "percent_possible_signers": 0.18181818181818182
    },
    "Giron_517": {
      "total_signers": 7,
      "unknown_signers": 0,
      "potential_bishops": 56,
      "percent_possible_signers": 0.125
    },
    "Toledo_527": {
      "total_signers": 6,
      "unknown_signers": 4,
      "potential_bishops": 57,
      "percent_possible_signers": 0.10526315789473684
    },
    "Barcelona_540": {
      "total_signers": 6,
      "unknown_signers": 0,
      "potential_bishops": 59,
      "percent_possible_signers": 0.1016949152542373
    },
    "Lérida_546": {
      "total_signers": 8,
      "unknown_signers": 0,
      "potential_bishops": 59,
      "percent_possible_signers": 0.13559322033898305
    },
    "Valencia_546": {
      "total_signers": 6,
      "unknown_signers": 5,
      "potential_bishops": 59,
      "percent_possible_signers": 0.1016949152542373
    },
    "Braga_561": {
      "total_signers": 8,
      "unknown_signers": 4,
      "potential_bishops": 63,
      "percent_possible_signers": 0.12698412698412698
    },
    "Braga_572": {
      "total_signers": 12,
      "unknown_signers": 0,
      "potential_bishops": 69,
      "percent_possible_signers": 0.17391304347826086
    },
    "Toledo_589": {
      "total_signers": 62,
      "unknown_signers": 0,
      "potential_bishops": 79,
      "percent_possible_signers": 0.7848101265822784
    }
  }
}
